
    {
        "ARG_OF_PERICENTER": 308.0935,
        "BSTAR": 0.00030149,
        "CLASSIFICATION_TYPE": "U",
        "ECCENTRICITY": 0.0011568,
        "ELEMENT_SET_NO": 999,
        "EPHEMERIS_TYPE": 0,
        "EPOCH": "2026-05-05T09:19:11.323200",
        "INCLINATION": 98.1163,
        "MEAN_ANOMALY": 51.924,
        "MEAN_MOTION": 14.93452947,
        "MEAN_MOTION_DDOT": 0,
        "MEAN_MOTION_DOT": 3.112e-05,
        "NORAD_CAT_ID": 39151,
        "OBJECT_ID": "2013-018B",
        "OBJECT_NAME": "NEE-01 PEGASO",
        "RA_OF_ASC_NODE": 268.145,
        "REV_AT_EPOCH": 70431
    },
    {
        "ARG_OF_PERICENTER": 332.2133,
        "BSTAR": 0.00027502448,
        "CLASSIFICATION_TYPE": "U",
        "ECCENTRICITY": 0.04203369,
        "ELEMENT_SET_NO": 999,
        "EPHEMERIS_TYPE": 0,
        "EPOCH": "2026-05-05T03:37:12.081792",
        "INCLINATION": 80.9929,
        "MEAN_ANOMALY": 25.717,
        "MEAN_MOTION": 14.90224283,
        "MEAN_MOTION_DDOT": 0,
        "MEAN_MOTION_DOT": 0.00016036,
        "NORAD_CAT_ID": 39269,
        "OBJECT_ID": "2013-055E",
        "OBJECT_NAME": "POPACS 2",
        "RA_OF_ASC_NODE": 193.42,
        "REV_AT_EPOCH": 65680
    },
    {
        "ARG_OF_PERICENTER": 203.1602,
        "BSTAR": 0.00032029638,
        "CLASSIFICATION_TYPE": "U",
        "ECCENTRICITY": 0.05551877,
        "ELEMENT_SET_NO": 999,
        "EPHEMERIS_TYPE": 0,
        "EPOCH": "2026-05-04T09:34:35.671008",
        "INCLINATION": 81.0007,
        "MEAN_ANOMALY": 154.3681,
        "MEAN_MOTION": 14.550358,
        "MEAN_MOTION_DDOT": 0,
        "MEAN_MOTION_DOT": 0.00013295,
        "NORAD_CAT_ID": 39270,
        "OBJECT_ID": "2013-055F",
        "OBJECT_NAME": "POPACS 3",
        "RA_OF_ASC_NODE": 276.6269,
        "REV_AT_EPOCH": 63218
    },
    {
        "ARG_OF_PERICENTER": 36.9109,
        "BSTAR": 0.00051746,
        "CLASSIFICATION_TYPE": "U",
        "ECCENTRICITY": 0.0042979,
        "ELEMENT_SET_NO": 999,
        "EPHEMERIS_TYPE": 0,
        "EPOCH": "2026-05-05T09:50:15.492192",
        "INCLINATION": 97.813,
        "MEAN_ANOMALY": 323.5059,
        "MEAN_MOTION": 15.008561,
        "MEAN_MOTION_DDOT": 0,
        "MEAN_MOTION_DOT": 6.649e-05,
        "NORAD_CAT_ID": 39417,
        "OBJECT_ID": "2013-066B",
        "OBJECT_NAME": "ZACUBE-1 (TSHEPISOSAT)",
        "RA_OF_ASC_NODE": 87.5163,
        "REV_AT_EPOCH": 67431
    },
    {
        "ARG_OF_PERICENTER": 7.2371,
        "BSTAR": 0.00012127,
        "CLASSIFICATION_TYPE": "U",
        "ECCENTRICITY": 0.0163297,
        "ELEMENT_SET_NO": 999,
        "EPHEMERIS_TYPE": 0,
        "EPOCH": "2026-05-05T09:19:12.295200",
        "INCLINATION": 97.7148,
        "MEAN_ANOMALY": 353.1132,
        "MEAN_MOTION": 14.58011667,
        "MEAN_MOTION_DDOT": 0,
        "MEAN_MOTION_DOT": 6.19e-06,
        "NORAD_CAT_ID": 39423,
        "OBJECT_ID": "2013-066H",
        "OBJECT_NAME": "WNISAT-1",
        "RA_OF_ASC_NODE": 277.596,
        "REV_AT_EPOCH": 66049
    },
    {
        "ARG_OF_PERICENTER": 14.5667,
        "BSTAR": 0.00037147,
        "CLASSIFICATION_TYPE": "U",
        "ECCENTRICITY": 0.009083,
        "ELEMENT_SET_NO": 999,
        "EPHEMERIS_TYPE": 0,
        "EPOCH": "2026-05-05T11:28:55.131168",
        "INCLINATION": 97.8272,
        "MEAN_ANOMALY": 345.8131,
        "MEAN_MOTION": 14.81511984,
        "MEAN_MOTION_DDOT": 0,
        "MEAN_MOTION_DOT": 3.071e-05,
        "NORAD_CAT_ID": 39427,
        "OBJECT_ID": "2013-066M",
        "OBJECT_NAME": "TRITON-1",
        "RA_OF_ASC_NODE": 36.2596,
        "REV_AT_EPOCH": 66776
    },
    {
        "ARG_OF_PERICENTER": 213.9168,
        "BSTAR": 0.00032959,
        "CLASSIFICATION_TYPE": "U",
        "ECCENTRICITY": 0.0127994,
        "ELEMENT_SET_NO": 999,
        "EPHEMERIS_TYPE": 0,
        "EPOCH": "2026-05-05T13:21:13.035168",
        "INCLINATION": 97.6507,
        "MEAN_ANOMALY": 145.3808,
        "MEAN_MOTION": 14.69297218,
        "MEAN_MOTION_DDOT": 0,
        "MEAN_MOTION_DOT": 2.153e-05,
        "NORAD_CAT_ID": 39430,
        "OBJECT_ID": "2013-066Q",
        "OBJECT_NAME": "GOMX-1",
        "RA_OF_ASC_NODE": 328.706,
        "REV_AT_EPOCH": 66365
    },
    {
        "ARG_OF_PERICENTER": 167.8226,
        "BSTAR": 0.00037799,
        "CLASSIFICATION_TYPE": "U",
        "ECCENTRICITY": 0.0058246,
        "ELEMENT_SET_NO": 999,
        "EPHEMERIS_TYPE": 0,
        "EPOCH": "2026-05-05T09:18:27.108864",
        "INCLINATION": 97.8882,
        "MEAN_ANOMALY": 192.4417,
        "MEAN_MOTION": 14.93453776,
        "MEAN_MOTION_DDOT": 0,
        "MEAN_MOTION_DOT": 4.047e-05,
        "NORAD_CAT_ID": 39440,
        "OBJECT_ID": "2013-066AA",
        "OBJECT_NAME": "CUBEBUG-2 (LO-74)",
        "RA_OF_ASC_NODE": 74.2051,
        "REV_AT_EPOCH": 67060
    },
    {
        "ARG_OF_PERICENTER": 210.9526,
        "BSTAR": 0.00019564751,
        "CLASSIFICATION_TYPE": "U",
        "ECCENTRICITY": 0.00654164,
        "ELEMENT_SET_NO": 999,
        "EPHEMERIS_TYPE": 0,
        "EPOCH": "2026-05-04T19:01:32.941632",
        "INCLINATION": 97.8877,
        "MEAN_ANOMALY": 148.7828,
        "MEAN_MOTION": 14.86461911,
        "MEAN_MOTION_DDOT": 0,
        "MEAN_MOTION_DOT": 1.738e-05,
        "NORAD_CAT_ID": 39441,
        "OBJECT_ID": "2013-066AB",
        "OBJECT_NAME": "NEE-02 KRYSAOR",
        "RA_OF_ASC_NODE": 64.3289,
        "REV_AT_EPOCH": 66975
    },
    {
        "ARG_OF_PERICENTER": 352.7638,
        "BSTAR": 0.00068065,
        "CLASSIFICATION_TYPE": "U",
        "ECCENTRICITY": 0.0036276,
        "ELEMENT_SET_NO": 999,
        "EPHEMERIS_TYPE": 0,
        "EPOCH": "2026-05-05T08:35:47.217696",
        "INCLINATION": 97.8256,
        "MEAN_ANOMALY": 7.3062,
        "MEAN_MOTION": 15.08930685,
        "MEAN_MOTION_DDOT": 0,
        "MEAN_MOTION_DOT": 0.00010845,
        "NORAD_CAT_ID": 39444,
        "OBJECT_ID": "2013-066AE",
        "OBJECT_NAME": "FUNCUBE-1 (AO-73)",
        "RA_OF_ASC_NODE": 95.9361,
        "REV_AT_EPOCH": 67320
    },
    {
        "ARG_OF_PERICENTER": 101.6954,
        "BSTAR": 0.00044871,
        "CLASSIFICATION_TYPE": "U",
        "ECCENTRICITY": 0.0051349,
        "ELEMENT_SET_NO": 999,
        "EPHEMERIS_TYPE": 0,
        "EPOCH": "2026-05-05T10:22:47.059968",
        "INCLINATION": 97.8688,
        "MEAN_ANOMALY": 259.0036,
        "MEAN_MOTION": 14.96678443,
        "MEAN_MOTION_DDOT": 0,
        "MEAN_MOTION_DOT": 5.199e-05,
        "NORAD_CAT_ID": 39446,
        "OBJECT_ID": "2013-066AG",
        "OBJECT_NAME": "UWE-3",
        "RA_OF_ASC_NODE": 81.2402,
        "REV_AT_EPOCH": 67118
    },
    {
        "ARG_OF_PERICENTER": 54.8837,
        "BSTAR": 0.00015967,
        "CLASSIFICATION_TYPE": "U",
        "ECCENTRICITY": 0.0079762,
        "ELEMENT_SET_NO": 999,
        "EPHEMERIS_TYPE": 0,
        "EPOCH": "2026-05-05T07:12:03.234816",
        "INCLINATION": 97.9676,
        "MEAN_ANOMALY": 305.9814,
        "MEAN_MOTION": 14.7261791,
        "MEAN_MOTION_DDOT": 0,
        "MEAN_MOTION_DOT": 1.015e-05,
        "NORAD_CAT_ID": 40020,
        "OBJECT_ID": "2014-033L",
        "OBJECT_NAME": "BRITE-CA1 (TORONTO)",
        "RA_OF_ASC_NODE": 255.0359,
        "REV_AT_EPOCH": 63590
    },
    {
        "ARG_OF_PERICENTER": 208.287,
        "BSTAR": 0.001065023,
        "CLASSIFICATION_TYPE": "U",
        "ECCENTRICITY": 0.00052219,
        "ELEMENT_SET_NO": 999,
        "EPHEMERIS_TYPE": 0,
        "EPOCH": "2026-05-05T02:58:23.505024",
        "INCLINATION": 98.0512,
        "MEAN_ANOMALY": 151.81,
        "MEAN_MOTION": 15.57357428,
        "MEAN_MOTION_DDOT": 0,
        "MEAN_MOTION_DOT": 0.00078459,
        "NORAD_CAT_ID": 40021,
        "OBJECT_ID": "2014-033M",
        "OBJECT_NAME": "DUCHIFAT-1",
        "RA_OF_ASC_NODE": 178.5128,
        "REV_AT_EPOCH": 64903
    }