NEE-01 PEGASO           
1 39151U 13018B   26125.38832550  .00003112  00000+0  30149-3 0  9998
2 39151  98.1163 268.1450 0011568 308.0935  51.9240 14.93452947704318
POPACS 2                
1 39269U 13055E   26125.15083428  .00016036  00000+0  27502-3 0  9994
2 39269  80.9929 193.4200 0420336 332.2133  25.7170 14.90224283656804
POPACS 3                
1 39270U 13055F   26124.39902397  .00013295  00000+0  32030-3 0  9992
2 39270  81.0007 276.6269 0555187 203.1602 154.3681 14.55035800632181
ZACUBE-1 (TSHEPISOSAT)  
1 39417U 13066B   26125.40990153  .00006649  00000+0  51746-3 0  9997
2 39417  97.8130  87.5163 0042979  36.9109 323.5059 15.00856100674317
WNISAT-1                
1 39423U 13066H   26125.38833675  .00000619  00000+0  12127-3 0  9997
2 39423  97.7148 277.5960 0163297   7.2371 353.1132 14.58011667660495
TRITON-1                
1 39427U 13066M   26125.47841587  .00003071  00000+0  37147-3 0  9996
2 39427  97.8272  36.2596 0090830  14.5667 345.8131 14.81511984667761
GOMX-1                  
1 39430U 13066Q   26125.55640087  .00002153  00000+0  32959-3 0  9997
2 39430  97.6507 328.7060 0127994 213.9168 145.3808 14.69297218663657
CUBEBUG-2 (LO-74)       
1 39440U 13066AA  26125.38781376  .00004047  00000+0  37799-3 0  9997
2 39440  97.8882  74.2051 0058246 167.8226 192.4417 14.93453776670606
NEE-02 KRYSAOR          
1 39441U 13066AB  26124.79274238  .00001738  00000+0  19565-3 0  9991
2 39441  97.8877  64.3289 0065416 210.9526 148.7828 14.86461911669750
FUNCUBE-1 (AO-73)       
1 39444U 13066AE  26125.35818539  .00010845  00000+0  68065-3 0  9993
2 39444  97.8256  95.9361 0036276 352.7638   7.3062 15.08930685673205
UWE-3                   
1 39446U 13066AG  26125.43248912  .00005199  00000+0  44871-3 0  9991
2 39446  97.8688  81.2402 0051349 101.6954 259.0036 14.96678443671189
BRITE-CA1 (TORONTO)     
1 40020U 14033L   26125.30003744  .00001015  00000+0  15967-3 0  9991
2 40020  97.9676 255.0359 0079762  54.8837 305.9814 14.72617910635908
DUCHIFAT-1              
1 40021U 14033M   26125.12388316  .00078459  00000+0  10650-2 0  9992
2 40021  98.0512 178.5128 0005221 208.2870 151.8100 15.57357428649038
